[{"OBJECT_NAME":"METOP-C","OBJECT_ID":"2018-087A","EPOCH":"2026-03-06T14:00:13.993920","MEAN_MOTION":14.21495838,"ECCENTRICITY":0.00021825,"INCLINATION":98.6772,"RA_OF_ASC_NODE":127.0091,"ARG_OF_PERICENTER":104.3247,"MEAN_ANOMALY":255.8173,"EPHEMERIS_TYPE":0,"CLASSIFICATION_TYPE":"U","NORAD_CAT_ID":43689,"ELEMENT_SET_NO":999,"REV_AT_EPOCH":38025,"BSTAR":9.0282771e-5,"MEAN_MOTION_DOT":1.54e-6,"MEAN_MOTION_DDOT":0},{"OBJECT_NAME":"GEO-KOMPSAT-2A","OBJECT_ID":"2018-100A","EPOCH":"2026-03-04T06:21:38.470176","MEAN_MOTION":1.00267019,"ECCENTRICITY":0.00017508,"INCLINATION":0.0084,"RA_OF_ASC_NODE":82.1864,"ARG_OF_PERICENTER":326.5345,"MEAN_ANOMALY":336.9688,"EPHEMERIS_TYPE":0,"CLASSIFICATION_TYPE":"U","NORAD_CAT_ID":43823,"ELEMENT_SET_NO":999,"REV_AT_EPOCH":2657,"BSTAR":0,"MEAN_MOTION_DOT":0,"MEAN_MOTION_DDOT":0},{"OBJECT_NAME":"METEOR-M2 2","OBJECT_ID":"2019-038A","EPOCH":"2026-03-06T14:44:02.300928","MEAN_MOTION":14.24331714,"ECCENTRICITY":0.00010882,"INCLINATION":98.9083,"RA_OF_ASC_NODE":51.4226,"ARG_OF_PERICENTER":10.1754,"MEAN_ANOMALY":349.9446,"EPHEMERIS_TYPE":0,"CLASSIFICATION_TYPE":"U","NORAD_CAT_ID":44387,"ELEMENT_SET_NO":999,"REV_AT_EPOCH":34669,"BSTAR":-3.0302688e-5,"MEAN_MOTION_DOT":-1.16e-6,"MEAN_MOTION_DDOT":0},{"OBJECT_NAME":"ARKTIKA-M 1","OBJECT_ID":"2021-016A","EPOCH":"2026-03-02T19:44:56.440608","MEAN_MOTION":2.00620868,"ECCENTRICITY":0.72428147,"INCLINATION":63.2036,"RA_OF_ASC_NODE":72.8571,"ARG_OF_PERICENTER":269.4536,"MEAN_ANOMALY":15.2019,"EPHEMERIS_TYPE":0,"CLASSIFICATION_TYPE":"U","NORAD_CAT_ID":47719,"ELEMENT_SET_NO":999,"REV_AT_EPOCH":3665,"BSTAR":0,"MEAN_MOTION_DOT":-1.08e-6,"MEAN_MOTION_DDOT":0},{"OBJECT_NAME":"FENGYUN 3E","OBJECT_ID":"2021-062A","EPOCH":"2026-03-06T14:26:08.403360","MEAN_MOTION":14.19892702,"ECCENTRICITY":0.00024261,"INCLINATION":98.7509,"RA_OF_ASC_NODE":70.1491,"ARG_OF_PERICENTER":47.6686,"MEAN_ANOMALY":312.4695,"EPHEMERIS_TYPE":0,"CLASSIFICATION_TYPE":"U","NORAD_CAT_ID":49008,"ELEMENT_SET_NO":999,"REV_AT_EPOCH":24202,"BSTAR":-8.8315543e-5,"MEAN_MOTION_DOT":-2.31e-6,"MEAN_MOTION_DDOT":0},{"OBJECT_NAME":"GOES 18","OBJECT_ID":"2022-021A","EPOCH":"2026-03-06T12:23:38.766624","MEAN_MOTION":1.0027147,"ECCENTRICITY":7.83e-5,"INCLINATION":0.029,"RA_OF_ASC_NODE":62.7759,"ARG_OF_PERICENTER":352.0996,"MEAN_ANOMALY":158.2603,"EPHEMERIS_TYPE":0,"CLASSIFICATION_TYPE":"U","NORAD_CAT_ID":51850,"ELEMENT_SET_NO":999,"REV_AT_EPOCH":556,"BSTAR":0,"MEAN_MOTION_DOT":9.3e-7,"MEAN_MOTION_DDOT":0},{"OBJECT_NAME":"NOAA 21 (JPSS-2)","OBJECT_ID":"2022-150A","EPOCH":"2026-03-06T13:12:28.787616","MEAN_MOTION":14.19551216,"ECCENTRICITY":0.00025975,"INCLINATION":98.7552,"RA_OF_ASC_NODE":5.8522,"ARG_OF_PERICENTER":112.063,"MEAN_ANOMALY":248.0822,"EPHEMERIS_TYPE":0,"CLASSIFICATION_TYPE":"U","NORAD_CAT_ID":54234,"ELEMENT_SET_NO":999,"REV_AT_EPOCH":17198,"BSTAR":8.5472919e-5,"MEAN_MOTION_DOT":1.36e-6,"MEAN_MOTION_DDOT":0},{"OBJECT_NAME":"METEOSAT-12 (MTG-I1)","OBJECT_ID":"2022-170C","EPOCH":"2026-03-06T13:57:26.993952","MEAN_MOTION":1.00269972,"ECCENTRICITY":0.00020214,"INCLINATION":0.7035,"RA_OF_ASC_NODE":21.7172,"ARG_OF_PERICENTER":287.7441,"MEAN_ANOMALY":63.8866,"EPHEMERIS_TYPE":0,"CLASSIFICATION_TYPE":"U","NORAD_CAT_ID":54743,"ELEMENT_SET_NO":999,"REV_AT_EPOCH":1194,"BSTAR":0,"MEAN_MOTION_DOT":-1.1e-7,"MEAN_MOTION_DDOT":0},{"OBJECT_NAME":"TIANMU-1 03","OBJECT_ID":"2023-039A","EPOCH":"2026-03-06T13:47:09.341952","MEAN_MOTION":15.44054287,"ECCENTRICITY":0.00040275,"INCLINATION":97.5174,"RA_OF_ASC_NODE":235.7879,"ARG_OF_PERICENTER":110.0574,"MEAN_ANOMALY":250.1107,"EPHEMERIS_TYPE":0,"CLASSIFICATION_TYPE":"U","NORAD_CAT_ID":55973,"ELEMENT_SET_NO":999,"REV_AT_EPOCH":16498,"BSTAR":0.00043961045,"MEAN_MOTION_DOT":0.00020013,"MEAN_MOTION_DDOT":0},{"OBJECT_NAME":"TIANMU-1 04","OBJECT_ID":"2023-039B","EPOCH":"2026-03-06T15:55:25.279392","MEAN_MOTION":15.44468319,"ECCENTRICITY":0.00046638,"INCLINATION":97.5107,"RA_OF_ASC_NODE":235.0409,"ARG_OF_PERICENTER":105.9277,"MEAN_ANOMALY":254.2485,"EPHEMERIS_TYPE":0,"CLASSIFICATION_TYPE":"U","NORAD_CAT_ID":55974,"ELEMENT_SET_NO":999,"REV_AT_EPOCH":16500,"BSTAR":0.00047243925,"MEAN_MOTION_DOT":0.00021825,"MEAN_MOTION_DDOT":0},{"OBJECT_NAME":"TIANMU-1 05","OBJECT_ID":"2023-039C","EPOCH":"2026-03-06T14:46:35.649696","MEAN_MOTION":15.44000359,"ECCENTRICITY":0.00037815,"INCLINATION":97.5153,"RA_OF_ASC_NODE":235.483,"ARG_OF_PERICENTER":126.939,"MEAN_ANOMALY":233.2205,"EPHEMERIS_TYPE":0,"CLASSIFICATION_TYPE":"U","NORAD_CAT_ID":55975,"ELEMENT_SET_NO":999,"REV_AT_EPOCH":16497,"BSTAR":0.00049893843,"MEAN_MOTION_DOT":0.00022691,"MEAN_MOTION_DDOT":0},{"OBJECT_NAME":"TIANMU-1 06","OBJECT_ID":"2023-039D","EPOCH":"2026-03-06T15:55:13.330272","MEAN_MOTION":15.44497728,"ECCENTRICITY":0.00040936,"INCLINATION":97.5164,"RA_OF_ASC_NODE":236.0697,"ARG_OF_PERICENTER":122.6574,"MEAN_ANOMALY":237.5069,"EPHEMERIS_TYPE":0,"CLASSIFICATION_TYPE":"U","NORAD_CAT_ID":55976,"ELEMENT_SET_NO":999,"REV_AT_EPOCH":16500,"BSTAR":0.0004703458,"MEAN_MOTION_DOT":0.00021747,"MEAN_MOTION_DDOT":0},{"OBJECT_NAME":"FENGYUN 3G","OBJECT_ID":"2023-055A","EPOCH":"2026-03-06T14:41:48.194304","MEAN_MOTION":15.54388152,"ECCENTRICITY":0.00107528,"INCLINATION":49.9928,"RA_OF_ASC_NODE":154.8855,"ARG_OF_PERICENTER":359.2643,"MEAN_ANOMALY":0.8308,"EPHEMERIS_TYPE":0,"CLASSIFICATION_TYPE":"U","NORAD_CAT_ID":56232,"ELEMENT_SET_NO":999,"REV_AT_EPOCH":16406,"BSTAR":0.00054713625,"MEAN_MOTION_DOT":0.00036389,"MEAN_MOTION_DDOT":0},{"OBJECT_NAME":"METEOR-M2 3","OBJECT_ID":"2023-091A","EPOCH":"2026-03-06T14:03:07.823808","MEAN_MOTION":14.24037327,"ECCENTRICITY":0.00050826,"INCLINATION":98.622,"RA_OF_ASC_NODE":122.6035,"ARG_OF_PERICENTER":106.2779,"MEAN_ANOMALY":253.8959,"EPHEMERIS_TYPE":0,"CLASSIFICATION_TYPE":"U","NORAD_CAT_ID":57166,"ELEMENT_SET_NO":999,"REV_AT_EPOCH":13991,"BSTAR":3.0269273e-5,"MEAN_MOTION_DOT":2.6e-7,"MEAN_MOTION_DDOT":0},{"OBJECT_NAME":"TIANMU-1 07","OBJECT_ID":"2023-101A","EPOCH":"2026-03-06T13:47:20.454720","MEAN_MOTION":15.29118809,"ECCENTRICITY":0.00046097,"INCLINATION":97.2728,"RA_OF_ASC_NODE":118.5929,"ARG_OF_PERICENTER":142.4105,"MEAN_ANOMALY":217.7458,"EPHEMERIS_TYPE":0,"CLASSIFICATION_TYPE":"U","NORAD_CAT_ID":57399,"ELEMENT_SET_NO":999,"REV_AT_EPOCH":14596,"BSTAR":0.00029794732,"MEAN_MOTION_DOT":8.352e-5,"MEAN_MOTION_DDOT":0},{"OBJECT_NAME":"TIANMU-1 08","OBJECT_ID":"2023-101B","EPOCH":"2026-03-06T09:55:22.548288","MEAN_MOTION":15.29193476,"ECCENTRICITY":0.0006299,"INCLINATION":97.2721,"RA_OF_ASC_NODE":118.2137,"ARG_OF_PERICENTER":135.7331,"MEAN_ANOMALY":224.4414,"EPHEMERIS_TYPE":0,"CLASSIFICATION_TYPE":"U","NORAD_CAT_ID":57400,"ELEMENT_SET_NO":999,"REV_AT_EPOCH":14593,"BSTAR":1.6854579e-5,"MEAN_MOTION_DOT":4.05e-6,"MEAN_MOTION_DDOT":0},{"OBJECT_NAME":"TIANMU-1 09","OBJECT_ID":"2023-101C","EPOCH":"2026-03-06T14:11:29.059584","MEAN_MOTION":15.29014604,"ECCENTRICITY":0.00046419,"INCLINATION":97.2674,"RA_OF_ASC_NODE":117.8656,"ARG_OF_PERICENTER":148.0576,"MEAN_ANOMALY":212.0946,"EPHEMERIS_TYPE":0,"CLASSIFICATION_TYPE":"U","NORAD_CAT_ID":57401,"ELEMENT_SET_NO":999,"REV_AT_EPOCH":14596,"BSTAR":0.00029758734,"MEAN_MOTION_DOT":8.315e-5,"MEAN_MOTION_DDOT":0}]
