METOP-C                 
1 43689U 18087A   26065.58349530  .00000154  00000+0  90283-4 0  9995
2 43689  98.6772 127.0091 0002182 104.3247 255.8173 14.21495838380259
GEO-KOMPSAT-2A          
1 43823U 18100A   26063.26502859  .00000000  00000+0  00000+0 0  9992
2 43823   0.0084  82.1864 0001750 326.5345 336.9688  1.00267019 26573
METEOR-M2 2             
1 44387U 19038A   26065.61391552 -.00000116  00000+0 -30303-4 0  9990
2 44387  98.9083  51.4226 0001088  10.1754 349.9446 14.24331714346697
ARKTIKA-M 1             
1 47719U 21016A   26061.82287547 -.00000108  00000+0  00000+0 0  9994
2 47719  63.2036  72.8571 7242814 269.4536  15.2019  2.00620868 36653
FENGYUN 3E              
1 49008U 21062A   26065.60148615 -.00000231  00000+0 -88316-4 0  9999
2 49008  98.7509  70.1491 0002426  47.6686 312.4695 14.19892702242027
GOES 18                 
1 51850U 22021A   26065.51642091  .00000093  00000+0  00000+0 0  9993
2 51850   0.0290  62.7759 0000783 352.0996 158.2603  1.00271470  5563
NOAA 21 (JPSS-2)        
1 54234U 22150A   26065.55033319  .00000136  00000+0  85473-4 0  9996
2 54234  98.7552   5.8522 0002597 112.0630 248.0822 14.19551216171981
METEOSAT-12 (MTG-I1)    
1 54743U 22170C   26065.58156243 -.00000011  00000+0  00000+0 0  9999
2 54743   0.7035  21.7172 0002021 287.7441  63.8866  1.00269972 11946
TIANMU-1 03             
1 55973U 23039A   26065.57441368  .00020013  00000+0  43961-3 0  9994
2 55973  97.5174 235.7879 0004027 110.0574 250.1107 15.44054287164980
TIANMU-1 04             
1 55974U 23039B   26065.66348703  .00021825  00000+0  47244-3 0  9994
2 55974  97.5107 235.0409 0004663 105.9277 254.2485 15.44468319165001
TIANMU-1 05             
1 55975U 23039C   26065.61569039  .00022691  00000+0  49894-3 0  9992
2 55975  97.5153 235.4830 0003781 126.9390 233.2205 15.44000359164972
TIANMU-1 06             
1 55976U 23039D   26065.66334873  .00021747  00000+0  47035-3 0  9990
2 55976  97.5164 236.0697 0004093 122.6574 237.5069 15.44497728165007
FENGYUN 3G              
1 56232U 23055A   26065.61236336  .00036389  00000+0  54714-3 0  9994
2 56232  49.9928 154.8855 0010752 359.2643   0.8308 15.54388152164062
METEOR-M2 3             
1 57166U 23091A   26065.58550722  .00000026  00000+0  30269-4 0  9994
2 57166  98.6220 122.6035 0005082 106.2779 253.8959 14.24037327139917
TIANMU-1 07             
1 57399U 23101A   26065.57454230  .00008352  00000+0  29795-3 0  9991
2 57399  97.2728 118.5929 0004609 142.4105 217.7458 15.29118809145964
TIANMU-1 08             
1 57400U 23101B   26065.41345542  .00000405  00000+0  16855-4 0  9997
2 57400  97.2721 118.2137 0006299 135.7331 224.4414 15.29193476145938
TIANMU-1 09             
1 57401U 23101C   26065.59130856  .00008315  00000+0  29759-3 0  9991
2 57401  97.2674 117.8656 0004641 148.0576 212.0946 15.29014604145965
